CCSDS_OMM_VERS,COMMENT,CREATION_DATE,ORIGINATOR,OBJECT_NAME,OBJECT_ID,CENTER_NAME,REF_FRAME,TIME_SYSTEM,MEAN_ELEMENT_THEORY,EPOCH,MEAN_MOTION,ECCENTRICITY,INCLINATION,RA_OF_ASC_NODE,ARG_OF_PERICENTER,MEAN_ANOMALY,EPHEMERIS_TYPE,CLASSIFICATION_TYPE,NORAD_CAT_ID,ELEMENT_SET_NO,REV_AT_EPOCH,BSTAR,MEAN_MOTION_DOT,MEAN_MOTION_DDOT,SEMIMAJOR_AXIS,PERIOD,APOAPSIS,PERIAPSIS,OBJECT_TYPE,RCS_SIZE,COUNTRY_CODE,LAUNCH_DATE,SITE,DECAY_DATE,FILE,GP_ID,TLE_LINE0,TLE_LINE1,TLE_LINE2
"2.0","GENERATED VIA SPACE-TRACK.ORG API","2020-11-27T22:36:10","18 SPCS","STARLINK-1694","2020-070N","EARTH","TEME","UTC","SGP4","2020-11-27T22:00:01.999584","15.62669213","0.00018980","52.9983","184.8608","67.1910","118.0414","0","U","46544","999","903","-0.00061530000000","-0.00056305","0.0000000000000","6758.087","92.150","381.235","378.669","PAYLOAD","","US","2020-10-06","AFETR","","2891666","166470161","0 STARLINK-1694","1 46544U 20070N   20332.91668981 -.00056305  00000-0 -61530-3 0  9999","2 46544  52.9983 184.8608 0001898  67.1910 118.0414 15.62669213  9038"
"2.0","GENERATED VIA SPACE-TRACK.ORG API","2020-11-28T14:46:11","18 SPCS","STARLINK-1694","2020-070N","EARTH","TEME","UTC","SGP4","2020-11-28T14:00:01.999872","15.62762691","0.00013570","52.9987","181.5938","60.8703","276.8620","0","U","46544","999","914","-0.00242040000000","-0.00216443","0.0000000000000","6757.817","92.144","380.599","378.765","PAYLOAD","","US","2020-10-06","AFETR","","2892564","166512248","0 STARLINK-1694","1 46544U 20070N   20333.58335648 -.00216443  00000-0 -24204-2 0  9991","2 46544  52.9987 181.5938 0001357  60.8703 276.8620 15.62762691  9140"
"2.0","GENERATED VIA SPACE-TRACK.ORG API","2020-11-28T23:06:10","18 SPCS","STARLINK-1694","2020-070N","EARTH","TEME","UTC","SGP4","2020-11-28T22:00:00.999936","15.62687376","0.00018490","52.9986","179.9646","62.1133","351.8864","0","U","46544","999","919","0.00058534000000","0.00053278","0.0000000000000","6758.035","92.148","381.149","378.650","PAYLOAD","","US","2020-10-06","AFETR","","2892902","166541597","0 STARLINK-1694","1 46544U 20070N   20333.91667824  .00053278  00000-0  58534-3 0  9999","2 46544  52.9986 179.9646 0001849  62.1133 351.8864 15.62687376  9199"
"2.0","GENERATED VIA SPACE-TRACK.ORG API","2020-11-29T07:06:10","18 SPCS","STARLINK-1694","2020-070N","EARTH","TEME","UTC","SGP4","2020-11-29T06:00:00.999648","15.62726598","0.00017600","52.9979","178.3308","62.4824","67.8198","0","U","46544","999","924","0.00008126000000","0.00006905","0.0000000000000","6757.921","92.146","380.976","378.597","PAYLOAD","","US","2020-10-06","AFETR","","2893191","166547689","0 STARLINK-1694","1 46544U 20070N   20334.25001157  .00006905  00000-0  81260-4 0  9996","2 46544  52.9979 178.3308 0001760  62.4824  67.8198 15.62726598  9241"
"2.0","GENERATED VIA SPACE-TRACK.ORG API","2020-11-29T18:59:51","18 SPCS","STARLINK-1694","2020-070N","EARTH","TEME","UTC","SGP4","2020-11-29T14:00:01.999872","15.62845619","0.00015780","52.9993","176.6979","69.1984","137.5401","0","U","46544","999","181","-0.00365580000000","-0.00323487","0.0000000000000","6757.578","92.139","380.510","378.377","PAYLOAD","","US","2020-10-06","AFETR","","2893785","166581045","0 STARLINK-1694","1 46544U 20070N   20334.58335648 -.00323487 +00000-0 -36558-2 0  9994","2 46544 052.9993 176.6979 0001578 069.1984 137.5401 15.62845619001813"
"2.0","GENERATED VIA SPACE-TRACK.ORG API","2020-11-29T22:46:10","18 SPCS","STARLINK-1694","2020-070N","EARTH","TEME","UTC","SGP4","2020-11-29T22:00:00.999936","15.62772283","0.00018300","52.9977","175.0675","59.6884","223.3922","0","U","46544","999","935","0.00035513000000","0.00032136","0.0000000000000","6757.790","92.143","380.891","378.418","PAYLOAD","","US","2020-10-06","AFETR","","2894120","166590483","0 STARLINK-1694","1 46544U 20070N   20334.91667824  .00032136  00000-0  35513-3 0  9992","2 46544  52.9977 175.0675 0001830  59.6884 223.3922 15.62772283  9350"
"2.0","GENERATED VIA SPACE-TRACK.ORG API","2020-11-30T14:46:10","18 SPCS","STARLINK-1694","2020-070N","EARTH","TEME","UTC","SGP4","2020-11-30T14:00:01.000224","15.62784217","0.00014820","52.9978","171.8005","62.2466","13.6840","0","U","46544","999","945","0.00012460000000","0.00010903","0.0000000000000","6757.755","92.143","380.622","378.619","PAYLOAD","","US","2020-10-06","AFETR","","2894884","166629494","0 STARLINK-1694","1 46544U 20070N   20335.58334491  .00010903  00000-0  12460-3 0  9991","2 46544  52.9978 171.8005 0001482  62.2466  13.6840 15.62784217  9451"
"2.0","GENERATED VIA SPACE-TRACK.ORG API","2020-11-30T22:36:10","18 SPCS","STARLINK-1694","2020-070N","EARTH","TEME","UTC","SGP4","2020-11-30T20:00:03.000384","15.62795556","0.00015160","52.9977","170.5778","51.5566","351.8273","0","U","46544","999","949","-0.00092488000000","-0.00084488","0.0000000000000","6757.723","92.142","380.612","378.563","PAYLOAD","","US","2020-10-06","AFETR","","2895169","166654617","0 STARLINK-1694","1 46544U 20070N   20335.83336806 -.00084488  00000-0 -92488-3 0  9990","2 46544  52.9977 170.5778 0001516  51.5566 351.8273 15.62795556  9492"
"2.0","GENERATED VIA SPACE-TRACK.ORG API","2020-12-01T06:22:07","18 SPCS","STARLINK-1694","2020-070N","EARTH","TEME","UTC","SGP4","2020-11-30T22:00:03.000096","15.62760846","0.00015520","52.9979","170.1700","49.3446","103.1566","0","U","46544","999","182","-0.00043535000000","-0.00040213","0.0000000000000","6757.823","92.144","380.737","378.639","PAYLOAD","","US","2020-10-06","AFETR","","2895233","166676312","0 STARLINK-1694","1 46544U 20070N   20335.91670139 -.00040213 +00000-0 -43535-3 0  9996","2 46544 052.9979 170.1700 0001552 049.3446 103.1566 15.62760846001823"
"2.0","GENERATED VIA SPACE-TRACK.ORG API","2020-12-01T14:46:10","18 SPCS","STARLINK-1694","2020-070N","EARTH","TEME","UTC","SGP4","2020-12-01T14:00:01.000224","15.62727335","0.00015740","52.9980","166.9036","58.8411","246.2634","0","U","46544","999","961","0.00029829000000","0.00026841","0.0000000000000","6757.919","92.146","380.848","378.721","PAYLOAD","","US","2020-10-06","AFETR","","2895588","166684952","0 STARLINK-1694","1 46544U 20070N   20336.58334491  .00026841  00000-0  29829-3 0  9997","2 46544  52.9980 166.9036 0001574  58.8411 246.2634 15.62727335  9617"
"2.0","GENERATED VIA SPACE-TRACK.ORG API","2020-12-02T04:55:40","18 SPCS","STARLINK-1694","2020-070N","EARTH","TEME","UTC","SGP4","2020-12-01T22:00:00.999936","15.62725060","0.00017650","52.9978","165.2735","51.9920","329.4962","0","U","46544","999","187","0.00064641000000","0.00059021","0.0000000000000","6757.926","92.146","380.984","378.598","PAYLOAD","","US","2020-10-06","AFETR","","2895815","166731049","0 STARLINK-1694","1 46544U 20070N   20336.91667824  .00059021  00000-0  64641-3 0  9990","2 46544  52.9978 165.2735 0001765  51.9920 329.4962 15.62725060  1874"
"2.0","GENERATED VIA SPACE-TRACK.ORG API","2020-12-02T18:56:12","18 SPCS","STARLINK-1694","2020-070N","EARTH","TEME","UTC","SGP4","2020-12-02T14:00:01.999872","15.62814773","0.00017790","52.9978","162.0061","61.5558","113.1231","0","U","46544","999","976","-0.00199630000000","-0.00179786","0.0000000000000","6757.667","92.141","380.734","378.330","PAYLOAD","","US","2020-10-06","AFETR","","2896188","166740158","0 STARLINK-1694","1 46544U 20070N   20337.58335648 -.00179786  00000-0 -19963-2 0  9999","2 46544  52.9978 162.0061 0001779  61.5558 113.1231 15.62814773  9763"
"2.0","GENERATED VIA SPACE-TRACK.ORG API","2020-12-02T19:24:44","18 SPCS","STARLINK-1694","2020-070N","EARTH","TEME","UTC","SGP4","2020-12-02T14:00:01.999872","15.62814773","0.00017790","52.9978","162.0061","61.5558","113.1231","0","U","46544","999","182","-0.00199630000000","-0.00179786","0.0000000000000","6757.667","92.141","380.734","378.330","PAYLOAD","","US","2020-10-06","AFETR","","2896233","166762131","0 STARLINK-1694","1 46544U 20070N   20337.58335648 -.00179786  00000-0 -19963-2 0  9999","2 46544  52.9978 162.0061 0001779  61.5558 113.1231 15.62814773  1822"
"2.0","GENERATED VIA SPACE-TRACK.ORG API","2020-12-03T03:02:41","18 SPCS","STARLINK-1694","2020-070N","EARTH","TEME","UTC","SGP4","2020-12-02T22:00:01.999584","15.62647848","0.00021000","52.9980","160.3757","56.9276","194.1473","0","U","46544","999","181","0.00069602000000","0.00063435","0.0000000000000","6758.148","92.151","381.433","378.594","PAYLOAD","","US","2020-10-06","AFETR","","2896409","166787129","0 STARLINK-1694","1 46544U 20070N   20337.91668981  .00063435  00000-0  69602-3 0  9992","2 46544  52.9980 160.3757 0002100  56.9276 194.1473 15.62647848  1815"
"2.0","GENERATED VIA SPACE-TRACK.ORG API","2020-12-03T20:15:29","18 SPCS","STARLINK-1694","2020-070N","EARTH","TEME","UTC","SGP4","2020-12-03T04:00:00.999936","15.62702665","0.00020070","52.9980","159.1504","58.5149","159.7108","0","U","46544","999","185","-0.00016905000000","-0.00015954","0.0000000000000","6757.990","92.148","381.212","378.499","PAYLOAD","","US","2020-10-06","AFETR","","2896876","166819965","0 STARLINK-1694","1 46544U 20070N   20338.16667824 -.00015954  00000-0 -16905-3 0  9998","2 46544  52.9980 159.1504 0002007  58.5149 159.7108 15.62702665  1859"
"2.0","GENERATED VIA SPACE-TRACK.ORG API","2020-12-03T07:26:09","18 SPCS","STARLINK-1694","2020-070N","EARTH","TEME","UTC","SGP4","2020-12-03T06:00:00.999648","15.62694230","0.00019940","52.9983","158.7418","60.3864","266.9289","0","U","46544","999","987","0.00016902000000","0.00014935","0.0000000000000","6758.015","92.148","381.227","378.532","PAYLOAD","","US","2020-10-06","AFETR","","2896661","166793020","0 STARLINK-1694","1 46544U 20070N   20338.25001157  .00014935  00000-0  16902-3 0  9992","2 46544  52.9983 158.7418 0001994  60.3864 266.9289 15.62694230  9879"
